{"type": "FeatureCollection", "features": [ {"type": "Feature", "properties": {"norad_id": 31480, "name": "FENGYUN 1C DEB", "group": "fengyun-1c-debris", "lat": 63.13473208077253, "lon": 179.04941764572752, "alt_km": 1163.846107017378, "timestamp": "2025-12-10T11:33:53.667805+00:00", "meta": {"OBJECT_NAME": "FENGYUN 1C DEB", "OBJECT_ID": "1999-025BVU", "EPOCH": "2025-12-09T12:46:31.039680", "MEAN_MOTION": 13.89862191, "ECCENTRICITY": 0.0345422, "INCLINATION": 98.3367, "RA_OF_ASC_NODE": 195.0218, "ARG_OF_PERICENTER": 230.3175, "MEAN_ANOMALY": 126.7053, "EPHEMERIS_TYPE": 0, "CLASSIFICATION_TYPE": "U", "NORAD_CAT_ID": 31480, "ELEMENT_SET_NO": 999, "REV_AT_EPOCH": 93351, "BSTAR": 0.0049778, "MEAN_MOTION_DOT": 9.878e-05, "MEAN_MOTION_DDOT": 0}, "tle": {"line1": "1 31480U 99025BVU 25343.53230370  .00009878  00000+0  49778-2 0  9999", "line2": "2 31480  98.3367 195.0218 0345422 230.3175 126.7053 13.89862191933514"}}, "geometry": {"type": "Point", "coordinates": [179.04941764572752, 63.13473208077253]}}, {"type": "Feature", "properties": {"norad_id": 31482, "name": "FENGYUN 1C DEB", "group": "fengyun-1c-debris", "lat": 57.987633470946996, "lon": -177.956009895789, "alt_km": 829.5193317499734, "timestamp": "2025-12-10T11:33:53.667815+00:00", "meta": {"OBJECT_NAME": "FENGYUN 1C DEB", "OBJECT_ID": "1999-025BVW", "EPOCH": "2025-12-09T23:25:32.810016", "MEAN_MOTION": 14.35637577, "ECCENTRICITY": 0.0088877, "INCLINATION": 98.3831, "RA_OF_ASC_NODE": 347.9092, "ARG_OF_PERICENTER": 290.6147, "MEAN_ANOMALY": 97.9453, "EPHEMERIS_TYPE": 0, "CLASSIFICATION_TYPE": "U", "NORAD_CAT_ID": 31482, "ELEMENT_SET_NO": 999, "REV_AT_EPOCH": 97090, "BSTAR": 0.0010839, "MEAN_MOTION_DOT": 3.227e-05, "MEAN_MOTION_DDOT": 0}, "tle": {"line1": "1 31482U 99025BVW 25343.97607419  .00003227  00000+0  10839-2 0  9999", "line2": "2 31482  98.3831 347.9092 0088877 290.6147  97.9453 14.35637577970903"}}, "geometry": {"type": "Point", "coordinates": [-177.956009895789, 57.987633470946996]}}, {"type": "Feature", "properties": {"norad_id": 31483, "name": "FENGYUN 1C DEB", "group": "fengyun-1c-debris", "lat": 50.55385185620193, "lon": 129.49756815716282, "alt_km": 846.753228838752, "timestamp": "2025-12-10T11:33:53.667826+00:00", "meta": {"OBJECT_NAME": "FENGYUN 1C DEB", "OBJECT_ID": "1999-025BVX", "EPOCH": "2025-12-09T15:26:58.964928", "MEAN_MOTION": 14.15973175, "ECCENTRICITY": 0.0119014, "INCLINATION": 102.503, "RA_OF_ASC_NODE": 292.6799, "ARG_OF_PERICENTER": 228.8603, "MEAN_ANOMALY": 309.809, "EPHEMERIS_TYPE": 0, "CLASSIFICATION_TYPE": "U", "NORAD_CAT_ID": 31483, "ELEMENT_SET_NO": 999, "REV_AT_EPOCH": 94662, "BSTAR": 0.0043288, "MEAN_MOTION_DOT": 9.081e-05, "MEAN_MOTION_DDOT": 0}, "tle": {"line1": "1 31483U 99025BVX 25343.64373802  .00009081  00000+0  43288-2 0  9998", "line2": "2 31483 102.5030 292.6799 0119014 228.8603 309.8090 14.15973175946620"}}, "geometry": {"type": "Point", "coordinates": [129.49756815716282, 50.55385185620193]}}, {"type": "Feature", "properties": {"norad_id": 31484, "name": "FENGYUN 1C DEB", "group": "fengyun-1c-debris", "lat": -52.97219230882857, "lon": 83.87655354473495, "alt_km": 717.6193402676618, "timestamp": "2025-12-10T11:33:53.667835+00:00", "meta": {"OBJECT_NAME": "FENGYUN 1C DEB", "OBJECT_ID": "1999-025BVY", "EPOCH": "2025-12-09T07:59:59.606592", "MEAN_MOTION": 14.50197564, "ECCENTRICITY": 0.00826698, "INCLINATION": 101.8032, "RA_OF_ASC_NODE": 278.3666, "ARG_OF_PERICENTER": 161.0428, "MEAN_ANOMALY": 199.3862, "EPHEMERIS_TYPE": 0, "CLASSIFICATION_TYPE": "U", "NORAD_CAT_ID": 31484, "ELEMENT_SET_NO": 999, "REV_AT_EPOCH": 64188, "BSTAR": 0.006314065, "MEAN_MOTION_DOT": 0.00025682, "MEAN_MOTION_DDOT": 0}, "tle": {"line1": "1 31484U 99025BVY 25343.33332878  .00025682  00000+0  63141-2 0  9998", "line2": "2 31484 101.8032 278.3666 0082669 161.0428 199.3862 14.50197564641885"}}, "geometry": {"type": "Point", "coordinates": [83.87655354473495, -52.97219230882857]}}, {"type": "Feature", "properties": {"norad_id": 31485, "name": "FENGYUN 1C DEB", "group": "fengyun-1c-debris", "lat": 38.68136515966045, "lon": 1.5535149661400693, "alt_km": 1439.077252466781, "timestamp": "2025-12-10T11:33:53.667845+00:00", "meta": {"OBJECT_NAME": "FENGYUN 1C DEB", "OBJECT_ID": "1999-025BVZ", "EPOCH": "2025-12-09T06:11:14.015904", "MEAN_MOTION": 13.40019973, "ECCENTRICITY": 0.0445833, "INCLINATION": 102.7188, "RA_OF_ASC_NODE": 169.6004, "ARG_OF_PERICENTER": 326.4222, "MEAN_ANOMALY": 30.9356, "EPHEMERIS_TYPE": 0, "CLASSIFICATION_TYPE": "U", "NORAD_CAT_ID": 31485, "ELEMENT_SET_NO": 999, "REV_AT_EPOCH": 90398, "BSTAR": 0.0042123, "MEAN_MOTION_DOT": 4.043e-05, "MEAN_MOTION_DDOT": 0}, "tle": {"line1": "1 31485U 99025BVZ 25343.25780111  .00004043  00000+0  42123-2 0  9992", "line2": "2 31485 102.7188 169.6004 0445833 326.4222  30.9356 13.40019973903986"}}, "geometry": {"type": "Point", "coordinates": [1.5535149661400693, 38.68136515966045]}}, {"type": "Feature", "properties": {"norad_id": 31487, "name": "FENGYUN 1C DEB", "group": "fengyun-1c-debris", "lat": 29.561152140693554, "lon": -20.66352542389901, "alt_km": 983.3149561116543, "timestamp": "2025-12-10T11:33:53.667855+00:00", "meta": {"OBJECT_NAME": "FENGYUN 1C DEB", "OBJECT_ID": "1999-025BWB", "EPOCH": "2025-12-09T17:44:32.604000", "MEAN_MOTION": 13.97711956, "ECCENTRICITY": 0.01203, "INCLINATION": 102.4139, "RA_OF_ASC_NODE": 151.1598, "ARG_OF_PERICENTER": 313.5334, "MEAN_ANOMALY": 61.6285, "EPHEMERIS_TYPE": 0, "CLASSIFICATION_TYPE": "U", "NORAD_CAT_ID": 31487, "ELEMENT_SET_NO": 999, "REV_AT_EPOCH": 94370, "BSTAR": 0.0022585, "MEAN_MOTION_DOT": 3.321e-05, "MEAN_MOTION_DDOT": 0}, "tle": {"line1": "1 31487U 99025BWB 25343.73926625  .00003321  00000+0  22585-2 0  9997", "line2": "2 31487 102.4139 151.1598 0120300 313.5334  61.6285 13.97711956943703"}}, "geometry": {"type": "Point", "coordinates": [-20.66352542389901, 29.561152140693554]}}, {"type": "Feature", "properties": {"norad_id": 31491, "name": "FENGYUN 1C DEB", "group": "fengyun-1c-debris", "lat": -11.876472034954165, "lon": 71.00648806955964, "alt_km": 833.8916988230021, "timestamp": "2025-12-10T11:33:53.667865+00:00", "meta": {"OBJECT_NAME": "FENGYUN 1C DEB", "OBJECT_ID": "1999-025BWE", "EPOCH": "2025-12-06T04:59:33.394560", "MEAN_MOTION": 14.1718589, "ECCENTRICITY": 0.00532624, "INCLINATION": 99.3042, "RA_OF_ASC_NODE": 248.5122, "ARG_OF_PERICENTER": 286.6061, "MEAN_ANOMALY": 72.9267, "EPHEMERIS_TYPE": 0, "CLASSIFICATION_TYPE": "U", "NORAD_CAT_ID": 31491, "ELEMENT_SET_NO": 999, "REV_AT_EPOCH": 63635, "BSTAR": 0.0031475615, "MEAN_MOTION_DOT": 6.393e-05, "MEAN_MOTION_DDOT": 0}, "tle": {"line1": "1 31491U 99025BWE 25340.20802540  .00006393  00000+0  31476-2 0  9991", "line2": "2 31491  99.3042 248.5122 0053262 286.6061  72.9267 14.17185890636358"}}, "geometry": {"type": "Point", "coordinates": [71.00648806955964, -11.876472034954165]}}, {"type": "Feature", "properties": {"norad_id": 31492, "name": "FENGYUN 1C DEB", "group": "fengyun-1c-debris", "lat": 10.481477401191501, "lon": 148.65195446058314, "alt_km": 615.5206511342603, "timestamp": "2025-12-10T11:33:53.667874+00:00", "meta": {"OBJECT_NAME": "FENGYUN 1C DEB", "OBJECT_ID": "1999-025BWF", "EPOCH": "2025-12-08T21:57:32.082624", "MEAN_MOTION": 14.70526216, "ECCENTRICITY": 0.0064455, "INCLINATION": 98.8575, "RA_OF_ASC_NODE": 148.6039, "ARG_OF_PERICENTER": 20.7386, "MEAN_ANOMALY": 339.6411, "EPHEMERIS_TYPE": 0, "CLASSIFICATION_TYPE": "U", "NORAD_CAT_ID": 31492, "ELEMENT_SET_NO": 999, "REV_AT_EPOCH": 96450, "BSTAR": 0.0035682, "MEAN_MOTION_DOT": 0.0002237, "MEAN_MOTION_DDOT": 0}, "tle": {"line1": "1 31492U 99025BWF 25342.91495466  .00022370  00000+0  35682-2 0  9993", "line2": "2 31492  98.8575 148.6039 0064455  20.7386 339.6411 14.70526216964509"}}, "geometry": {"type": "Point", "coordinates": [148.65195446058314, 10.481477401191501]}}, {"type": "Feature", "properties": {"norad_id": 31493, "name": "FENGYUN 1C DEB", "group": "fengyun-1c-debris", "lat": -55.16491127579536, "lon": 95.26881507671217, "alt_km": 875.3325174995489, "timestamp": "2025-12-10T11:33:53.667884+00:00", "meta": {"OBJECT_NAME": "FENGYUN 1C DEB", "OBJECT_ID": "1999-025BWG", "EPOCH": "2025-12-10T01:49:08.446080", "MEAN_MOTION": 13.92961332, "ECCENTRICITY": 0.0116966, "INCLINATION": 100.1358, "RA_OF_ASC_NODE": 289.7193, "ARG_OF_PERICENTER": 182.7009, "MEAN_ANOMALY": 177.3529, "EPHEMERIS_TYPE": 0, "CLASSIFICATION_TYPE": "U", "NORAD_CAT_ID": 31493, "ELEMENT_SET_NO": 999, "REV_AT_EPOCH": 59829, "BSTAR": 0.001157, "MEAN_MOTION_DOT": 1.538e-05, "MEAN_MOTION_DDOT": 0}, "tle": {"line1": "1 31493U 99025BWG 25344.07579220  .00001538  00000+0  11570-2 0  9997", "line2": "2 31493 100.1358 289.7193 0116966 182.7009 177.3529 13.92961332598291"}}, "geometry": {"type": "Point", "coordinates": [95.26881507671217, -55.16491127579536]}}, {"type": "Feature", "properties": {"norad_id": 31495, "name": "FENGYUN 1C DEB", "group": "fengyun-1c-debris", "lat": 49.80640100955835, "lon": 48.5140052080695, "alt_km": 779.5696827040283, "timestamp": "2025-12-10T11:33:53.667894+00:00", "meta": {"OBJECT_NAME": "FENGYUN 1C DEB", "OBJECT_ID": "1999-025BWJ", "EPOCH": "2025-12-09T21:31:08.972832", "MEAN_MOTION": 14.29180144, "ECCENTRICITY": 0.0025328, "INCLINATION": 99.1198, "RA_OF_ASC_NODE": 216.942, "ARG_OF_PERICENTER": 186.5382, "MEAN_ANOMALY": 173.5472, "EPHEMERIS_TYPE": 0, "CLASSIFICATION_TYPE": "U", "NORAD_CAT_ID": 31495, "ELEMENT_SET_NO": 999, "REV_AT_EPOCH": 63350, "BSTAR": 0.00178, "MEAN_MOTION_DOT": 4.489e-05, "MEAN_MOTION_DDOT": 0}, "tle": {"line1": "1 31495U 99025BWJ 25343.89663163  .00004489  00000+0  17800-2 0  9998", "line2": "2 31495  99.1198 216.9420 0025328 186.5382 173.5472 14.29180144633508"}}, "geometry": {"type": "Point", "coordinates": [48.5140052080695, 49.80640100955835]}}]}